{
    "links": {
        "self": "http://www.neowsapp.com/rest/v1/neo/54017203?api_key=iIulBulltgU6a56xZRHN4H3l9WmuAYTsLGpBGhQ2"
    },
    "id": "54017203",
    "neo_reference_id": "54017203",
    "name": "(2020 KX3)",
    "designation": "2020 KX3",
    "nasa_jpl_url": "http://ssd.jpl.nasa.gov/sbdb.cgi?sstr=54017203",
    "absolute_magnitude_h": 25.881,
    "estimated_diameter": {
        "kilometers": {
            "estimated_diameter_min": 0.0177155637,
            "estimated_diameter_max": 0.0396132048
        },
        "meters": {
            "estimated_diameter_min": 17.7155637283,
            "estimated_diameter_max": 39.6132047562
        },
        "miles": {
            "estimated_diameter_min": 0.0110079375,
            "estimated_diameter_max": 0.0246144967
        },
        "feet": {
            "estimated_diameter_min": 58.1219301023,
            "estimated_diameter_max": 129.9645866923
        }
    },
    "is_potentially_hazardous_asteroid": false,
    "close_approach_data": [
        {
            "close_approach_date": "2020-05-15",
            "close_approach_date_full": "2020-May-15 19:45",
            "epoch_date_close_approach": 1589571900000,
            "relative_velocity": {
                "kilometers_per_second": "6.9093041133",
                "kilometers_per_hour": "24873.4948079006",
                "miles_per_hour": "15455.4223710535"
            },
            "miss_distance": {
                "astronomical": "0.0511195408",
                "lunar": "19.8855013712",
                "kilometers": "7647374.419058096",
                "miles": "4751858.1174138848"
            },
            "orbiting_body": "Earth"
        },
        {
            "close_approach_date": "2080-03-09",
            "close_approach_date_full": "2080-Mar-09 01:17",
            "epoch_date_close_approach": 3477172620000,
            "relative_velocity": {
                "kilometers_per_second": "16.9219769905",
                "kilometers_per_hour": "60919.1171657089",
                "miles_per_hour": "37852.7703299929"
            },
            "miss_distance": {
                "astronomical": "0.3697230372",
                "lunar": "143.8222614708",
                "kilometers": "55309778.855050764",
                "miles": "34367902.9196939832"
            },
            "orbiting_body": "Earth"
        },
        {
            "close_approach_date": "2119-04-05",
            "close_approach_date_full": "2119-Apr-05 12:02",
            "epoch_date_close_approach": 4710139320000,
            "relative_velocity": {
                "kilometers_per_second": "7.7667026274",
                "kilometers_per_hour": "27960.1294585743",
                "miles_per_hour": "17373.3371071902"
            },
            "miss_distance": {
                "astronomical": "0.0759475087",
                "lunar": "29.5435808843",
                "kilometers": "11361585.533326469",
                "miles": "7059761.8849005122"
            },
            "orbiting_body": "Earth"
        }
    ],
    "orbital_data": {
        "orbit_id": "4",
        "orbit_determination_date": "2020-06-10 05:55:34",
        "first_observation_date": "2020-05-21",
        "last_observation_date": "2020-06-10",
        "data_arc_in_days": 20,
        "observations_used": 34,
        "orbit_uncertainty": "7",
        "minimum_orbit_intersection": ".0237848",
        "jupiter_tisserand_invariant": "3.824",
        "epoch_osculation": "2459000.5",
        "eccentricity": ".4552734767390136",
        "semi_major_axis": "1.891166254335835",
        "inclination": "2.388332747831409",
        "ascending_node_longitude": "217.6631825462318",
        "orbital_period": "949.9330361689611",
        "perihelion_distance": "1.030168418632861",
        "perihelion_argument": "356.5798443285307",
        "aphelion_distance": "2.752164090038808",
        "perihelion_time": "2458968.363133027334",
        "mean_anomaly": "12.17903964769793",
        "mean_motion": ".3789740816382852",
        "equinox": "J2000",
        "orbit_class": {
            "orbit_class_type": "AMO",
            "orbit_class_description": "Near-Earth asteroid orbits similar to that of 1221 Amor",
            "orbit_class_range": "1.017 AU < q (perihelion) < 1.3 AU"
        }
    },
    "is_sentry_object": false
}